ESEO                    
1 43792U 18099AL  26068.65529582  .00002831  00000+0  20935-3 0  9991
2 43792  97.4113 110.2601 0011063 317.6000  42.4371 15.03914518396849
STARLINK-4406           
1 53667U 22105V   26068.67497366  .00005451  00000+0  38131-3 0  9990
2 53667  97.5995 311.2806 0003274  72.4901 287.6683 15.05688645193307
